STARLINK-1042           
1 44747U 19074AL  22024.84282629  .00000635  00000+0  61526-4 0  9995
2 44747  53.0554 142.1342 0001711  66.8439 293.2730 15.06389858121387
STARLINK-1043           
1 44748U 19074AM  22024.73961040  .00001386  00000+0  11193-3 0  9993
2 44748  53.0558 142.5984 0001572  73.9267 286.1895 15.06397586121369
STARLINK-1046           
1 44751U 19074AQ  22024.75436285  .00000409  00000+0  46323-4 0  9996
2 44751  53.0542 142.5438 0001470  78.9036 281.2118 15.06400693121364
STARLINK-1047           
1 44752U 19074AR  22024.64194101  .00000838  00000+0  75174-4 0  9995
2 44752  53.0551 123.0311 0001381  74.5683 285.5459 15.06401917121624
STARLINK-1048           
1 44753U 19074AS  22024.64746978  .00000852  00000+0  76052-4 0  9993
2 44753  53.0533 103.0167 0001226  73.6874 286.4249 15.06401968121906
STARLINK-1049           
1 44754U 19074AT  22024.71751594 -.00001205  00000+0 -62011-4 0  9997
2 44754  53.0553 102.7099 0001238  85.6434 274.4697 15.06388713121914
STARLINK-1050           
1 44755U 19074AU  22024.85087331  .00676005  00000+0  14887-1 0  9993
2 44755  53.0461 140.1644 0001674  38.5743 321.5380 15.41180258121959
STARLINK-1034           
1 44757U 19074AW  22024.65299070  .00001074  00000+0  91001-4 0  9992
2 44757  53.0555 122.9919 0001309  77.8195 282.2941 15.06405594121624
STARLINK-1053           
1 44758U 19074AX  22024.79396203  .00000094  00000+0  25194-4 0  9995
2 44758  53.0556 142.3558 0001534  75.4044 284.7115 15.06390677121375
STARLINK-1054           
1 44759U 19074AY  22024.58480571  .00000594  00000+0  58789-4 0  9996
2 44759  53.0550 143.3096 0001346  85.1364 274.9779 15.06399773118988
STARLINK-1055           
1 44760U 19074AZ  22024.83545747  .00001397  00000+0  11270-3 0  9998
2 44760  53.0550 142.1651 0001550  73.6971 286.4189 15.06389945121388
STARLINK-1056           
1 44761U 19074BA  22024.71382445  .00004181  00000+0  29952-3 0  9990
2 44761  53.0533 142.7215 0001866  51.7611 308.3546 15.06388803121361
STARLINK-1057           
1 44762U 19074BB  22024.78200924  .00001305  00000+0  10651-3 0  9990
2 44762  53.0534 122.4030 0001358  78.8659 281.2482 15.06399764121648
STARLINK-1058           
1 44763U 19074BC  22024.73593592  .00000307  00000+0  39479-4 0  9993
2 44763  53.0549 142.6288 0001168  64.2092 295.9018 15.06400925121361
STARLINK-1059           
1 44764U 19074BD  22024.64562357  .00000646  00000+0  62256-4 0  9994
2 44764  53.0537 123.0288 0001483  70.8714 289.2436 15.06402455121625
STARLINK-1060           
1 44765U 19074BE  22024.66405446  .00001271  00000+0  10416-3 0  9997
2 44765  53.0545 122.9336 0001240  74.4462 285.6663 15.06403179121624
STARLINK-1061           
1 44766U 19074BF  22024.79490644 -.00001223  00000+0 -63234-4 0  9992
2 44766  53.0557 142.3429 0001365  87.4803 272.6342 15.06393751121374
STARLINK-1062           
1 44767U 19074BG  22024.72118710 -.00000733  00000+0 -30308-4 0  9998
2 44767  53.0547 142.6767 0001860  76.6520 283.4676 15.06406698121362
STARLINK-1063           
1 44768U 19074BH  22024.74329991  .00002538  00000+0  18922-3 0  9996
2 44768  53.0524 142.5813 0001559  70.4404 289.6753 15.06406377121376
STARLINK-1064           
1 44769U 19074BJ  22024.50619291 -.00004925  00000+0 -18488-4 0  9998
2 44769  53.0534  85.7123 0003752   2.5786 357.5255 15.83798548122211
STARLINK-1067           
1 44771U 19074BL  22024.59954640  .00000351  00000+0  42479-4 0  9994
2 44771  53.0541 143.2291 0001427  61.2900 298.8232 15.06400556121344
STARLINK-1068           
1 44772U 19074BM  22024.65668348  .00000630  00000+0  61181-4 0  9990
2 44772  53.0550 122.9790 0001144  81.0748 279.0370 15.06402867121621
JILIN-01 GAOFEN 2A      
1 44777U 19075A   22024.93008193  .00001369  00000+0  89769-4 0  9995
2 44777  97.4353  86.8463 0009221  29.9439  88.4317 15.09260243121251
NINGXIA-1 1             
1 44779U 19076A   22024.73686978 -.00000102  00000+0  18288-4 0  9992
2 44779  45.0056 147.5544 0010049 130.5601 229.6099 14.01706984112723
NINGXIA-1 2             
1 44780U 19076B   22024.79444739 -.00000088  00000+0  27406-4 0  9992
2 44780  45.0083 147.3261 0007704 126.8920 233.2621 14.01704499112737
NINGXIA-1 3             
1 44781U 19076C   22024.71089541 -.00000075  00000+0  35997-4 0  9991
2 44781  44.9998 147.0194 0008991 111.4804 248.6992 14.01696952112727
NINGXIA-1 4             
1 44782U 19076D   22024.69641677 -.00000083  00000+0  30396-4 0  9990
2 44782  45.0082 147.4600 0012502  97.3505 262.8750 14.01702381112727
NINGXIA-1 5             
1 44783U 19076E   22024.75232429 -.00000088  00000+0  27620-4 0  9990
2 44783  45.0055 146.8858 0011020 115.9516 244.2454 14.01712571112737
KL-ALPHA A              
1 44785U 19077A   22024.74395330  .00000030  00000+0  24682-4 0  9994
2 44785  88.9178  39.6116 0012853 100.3255 259.9341 13.55798050108311
KL-ALPHA B              
1 44786U 19077B   22024.71390993  .00000026  00000+0  19420-4 0  9991
2 44786  88.9020  39.5792 0027376 141.0006 219.3120 13.55774537107766
RWASAT-1                
1 44790U 98067QV  22023.16528145  .00015482  00000+0  11951-3 0  9994
2 44790  51.6398 287.1036 0005352  67.7699  91.1184 15.72140396123844
AQT-D                   
1 44791U 98067QW  22024.88995502  .00047772  00000+0  34013-3 0  9991
2 44791  51.6311 278.0773 0003044  55.8182 304.3104 15.73344368124127
BEIDOU-3 M21            
1 44793U 19078A   22024.40330324 -.00000067  00000+0  10000-3 0  9998
2 44793  55.0165 355.5749 0006768 356.3200 181.9459  1.86232271 14762
BEIDOU-3 M22            
1 44794U 19078B   22024.53381493 -.00000067  00000+0  00000+0 0  9991
2 44794  54.9904 355.5644 0004859 347.2004 189.9577  1.86232835 14761
COSMOS 2542             
1 44797U 19079A   22024.94654382  .00027821  22443-5  38881-3 0  9999
2 44797  97.7096  90.8892 0354207 203.2923 155.1914 15.08500949117993
TIBA-1                  
1 44800U 19080A   22024.84549611  .00000167  00000+0  00000+0 0  9994
2 44800   0.0552 347.7526 0001884 299.6733 176.5854  1.00274342  7976
INMARSAT GX5            
1 44801U 19080B   22024.76883125  .00000086  00000+0  00000+0 0  9997
2 44801   0.0360   1.9639 0002171 324.4177  85.4204  1.00270952  8013
CARTOSAT-3              
1 44804U 19081A   22024.86342277  .00001261  00000+0  62938-4 0  9999
2 44804  97.4197  89.2119 0013403   6.0522 107.0644 15.19257475119835
MESHBED                 
1 44806U 19081C   22024.72795842  .00007036  00000+0  29301-3 0  9998
2 44806  97.4229  91.0902 0012940  12.1013 348.0532 15.23971276119988
FLOCK 4P-10             
1 44808U 19081E   22024.73202350  .00008362  00000+0  35456-3 0  9999
2 44808  97.4222  91.1019 0012913  15.5439 344.6192 15.23301221119994
FLOCK 4P-11             
1 44809U 19081F   22024.71099229  .00005111  00000+0  21632-3 0  9997
2 44809  97.4220  91.1083 0012616  14.8368 345.3236 15.23563179119996
FLOCK 4P-4              
1 44811U 19081H   22024.74803967  .00007998  00000+0  33513-3 0  9991
2 44811  97.4270  91.4989 0011339   4.4022 355.7313 15.23736988120000
FLOCK 4P-3              
1 44812U 19081J   22024.74163580  .00007350  00000+0  30901-3 0  9992
2 44812  97.4267  91.5046 0011280   5.7820 354.3546 15.23652082120002
FLOCK 4P-2              
1 44813U 19081K   22024.89901109  .00004484  00000+0  19098-3 0  9995
2 44813  97.4232  91.4208 0011024   8.2285 351.9130 15.23436998120023
FLOCK 4P-1              
1 44814U 19081L   22024.70080125  .00001929  00000+0  84910-4 0  9999
2 44814  97.4237  91.2341 0011051   9.2562 350.8876 15.23018359119990
FLOCK 4P-7              
1 44816U 19081N   22024.74209802  .00003593  00000+0  15500-3 0  9997
2 44816  97.4230  91.3128 0010806   9.2778 350.8656 15.23134109120007
FLOCK 4P-5              
1 44818U 19081Q   22024.72132546  .00003634  00000+0  15558-3 0  9996
2 44818  97.4231  91.3535 0010098  10.4009 349.7435 15.23396562120001
GAOFEN 12-1             
1 44819U 19082A   22024.96074075  .00000147  00000+0  26042-4 0  9993
2 44819  97.8719  48.1923 0000878  85.8176 274.3138 14.80315850116713
ALE-2                   
1 44824U 19084A   22024.60055089  .00009166  00000+0  12828-3 0  9992
2 44824  96.9033 243.8375 0008967 263.3626  96.6610 15.56971213121297
COSMOS 2543             
1 44835U 19079D   22024.90733566  .00003323  00000+0  12116-3 0  9993
2 44835  97.7856  89.7385 0092557 220.7761 138.6525 15.24973083115864
JILIN-01 GAOFEN 2B      
1 44836U 19086A   22024.89847355  .00001555  00000+0  10139-3 0  9990
2 44836  97.4377  87.4103 0008733 119.3888 354.9205 15.09289349117643
2019-087A               
1 44838U 19087A   22024.88996572  .00006458  00000+0  26441-3 0  9998
2 44838  97.4620 185.2314 0013234  53.2721 110.2290 15.24575772118576
2019-087B               
1 44839U 19087B   22024.87324640  .00004148  00000+0  17685-3 0  9993
2 44839  97.4582 184.5947 0013602  56.5298  86.0603 15.23413910118552
2019-087C               
1 44840U 19087C   22024.87536154  .00004773  00000+0  20066-3 0  9991
2 44840  97.4660 185.6241 0012721  57.6859  84.9272 15.23827228118578
2019-087D               
1 44841U 19087D   22024.89543337  .00013304  00000+0  47639-3 0  9990
2 44841  97.4441 186.2950 0009751  41.5516 114.5588 15.28843217118718
2019-087E               
1 44842U 19087E   22024.88392355  .00005088  00000+0  21197-3 0  9993
2 44842  97.4554 184.7798 0012200  59.8333  45.2634 15.24106325118595
2019-087F               
1 44843U 19087F   22024.90535703  .00003627  00000+0  15425-3 0  9997
2 44843  97.4621 185.2137 0014274  67.5346  85.4088 15.23581684118578
COSMOS 2544 [GLONASS-M] 
1 44850U 19088A   22024.70849929  .00000017  00000+0  00000+0 0  9991
2 44850  64.9241 127.5123 0011452 255.4329 166.1911  2.13102288 16518
TYVAK-0092              
1 44852U 19089A   22024.87281050  .00002373  00000+0  18781-3 0  9993
2 44852  36.9633 225.7662 0005459 182.4873 177.5843 15.01128178116367
